<?xml version="1.0" encoding="UTF-8"?>
<kml xmlns="http://www.opengis.net/kml/2.2" xmlns:gx="http://www.google.com/kml/ext/2.2">
	<Document id="1">
		<Style id="2">
			<LineStyle id="9">
				<color>FF61A692</color>
				<colorMode>normal</colorMode>
			</LineStyle>
			<PolyStyle id="16">
				<color>FF61A692</color>
				<colorMode>normal</colorMode>
				<fill>1</fill>
				<outline>1</outline>
			</PolyStyle>
		</Style>
		<Style id="3">
			<LineStyle id="10">
				<color>FFED8A2F</color>
				<colorMode>normal</colorMode>
			</LineStyle>
			<PolyStyle id="17">
				<color>FFED8A2F</color>
				<colorMode>normal</colorMode>
				<fill>1</fill>
				<outline>1</outline>
			</PolyStyle>
		</Style>
		<Style id="4">
			<LineStyle id="11">
				<color>FF113065</color>
				<colorMode>normal</colorMode>
			</LineStyle>
			<PolyStyle id="18">
				<color>FF113065</color>
				<colorMode>normal</colorMode>
				<fill>1</fill>
				<outline>1</outline>
			</PolyStyle>
		</Style>
		<Style id="5">
			<LineStyle id="12">
				<color>FF6A7180</color>
				<colorMode>normal</colorMode>
			</LineStyle>
			<PolyStyle id="19">
				<color>FF6A7180</color>
				<colorMode>normal</colorMode>
				<fill>1</fill>
				<outline>1</outline>
			</PolyStyle>
		</Style>
		<Style id="6">
			<LineStyle id="13">
				<color>FF62A5D4</color>
				<colorMode>normal</colorMode>
			</LineStyle>
			<PolyStyle id="20">
				<color>FF62A5D4</color>
				<colorMode>normal</colorMode>
				<fill>1</fill>
				<outline>1</outline>
			</PolyStyle>
		</Style>
		<Style id="7">
			<LineStyle id="14">
				<color>FFD65C5C</color>
				<colorMode>normal</colorMode>
			</LineStyle>
			<PolyStyle id="21">
				<color>FFD65C5C</color>
				<colorMode>normal</colorMode>
				<fill>1</fill>
				<outline>1</outline>
			</PolyStyle>
		</Style>
		<Style id="8">
			<LineStyle id="15">
				<color>FF2F80ED</color>
				<colorMode>normal</colorMode>
			</LineStyle>
			<PolyStyle id="22">
				<color>FF2F80ED</color>
				<colorMode>normal</colorMode>
				<fill>1</fill>
				<outline>1</outline>
			</PolyStyle>
		</Style>
		<open>1</open>
		<Placemark id="40">
			<name>fw2kml - Flight 0</name>
			<styleUrl>#2</styleUrl>
			<LineString id="60">
				<extrude>1</extrude>
				<altitudeMode>absolute</altitudeMode>
				<coordinates>-97.73390198,37.16874695,383.8210 -97.73390198,37.16874695,383.8260 -97.73390198,37.16874695,383.8250 -97.73390198,37.16874695,383.8300 -97.73390198,37.16874695,383.8320 -97.73390198,37.16874695,383.8330 -97.73390198,37.16874695,383.8330 -97.73390198,37.16874695,383.8320 -97.73390198,37.16874695,383.8350 -97.73390198,37.16874695,383.8420 -97.73390198,37.16874695,383.8450 -97.73390198,37.16874695,383.8480 -97.73390198,37.16874695,383.8480 -97.73390198,37.16874695,383.8470 -97.73390198,37.16874695,383.8500 -97.73390198,37.16874695,383.8550 -97.73390198,37.16874695,383.8620 -97.73390198,37.16874695,383.8640 -97.73390198,37.16874695,383.8640 -97.73390198,37.16874695,383.8670 -97.73390198,37.16874695,383.8750 -97.73390198,37.16874695,383.8750 -97.73390198,37.16874695,383.8780 -97.73390198,37.16874695,383.8750 -97.73390198,37.16874695,383.8790 -97.73390198,37.16874695,383.8820 -97.73390198,37.16874695,383.8870 -97.73390198,37.16874695,383.8850 -97.73390198,37.16874695,383.8890 -97.73390198,37.16874695,383.8940 -97.73390198,37.16874695,383.8960 -97.73390198,37.16874695,383.8970 -97.73390198,37.16874695,383.8960 -97.73390198,37.16874695,383.8970 -97.73390198,37.16874695,383.9000 -97.73390198,37.16874695,383.9020 -97.73390198,37.16874695,383.9520 -97.73390198,37.16874695,384.1700 -97.73389435,37.16874695,388.1040 -97.73389435,37.16874695,397.4520 -97.73389435,37.16874313,411.0340 -97.73389435,37.16874313,419.4570 -97.73389435,37.16873932,451.1560 -97.73388672,37.16873932,463.8670 -97.73388672,37.16873550,477.6330 -97.73388672,37.16873550,492.5240 -97.73388672,37.16872787,525.4240 -97.73388672,37.16872406,543.5520 -97.73388672,37.16872025,562.7040 -97.73388672,37.16871262,582.7210 -97.73388672,37.16870880,603.7440 -97.73388672,37.16870117,625.9400 -97.73388672,37.16869354,649.1110 -97.73388672,37.16868591,673.0780 -97.73387909,37.16868210,697.6100 -97.73387909,37.16866684,749.2530 -97.73387909,37.16865921,777.3460 -97.73387146,37.16865158,805.6780 -97.73387146,37.16863632,835.6440 -97.73387146,37.16862488,867.2360 -97.73387146,37.16861343,899.5320 -97.73387146,37.16860199,932.5890 -97.73387146,37.16858673,966.8890 -97.73387146,37.16857529,1001.7091 -97.73387146,37.16854477,1072.0641 -97.73387146,37.16852951,1108.8201 -97.73387146,37.16851425,1147.3380 -97.73387146,37.16849518,1186.1631 -97.73387146,37.16847610,1225.5760 -97.73387146,37.16844559,1305.1670 -97.73387146,37.16843033,1346.2751 -97.73387146,37.16841125,1388.2271 -97.73388672,37.16836929,1470.6780 -97.73389435,37.16834641,1511.4971 -97.73390198,37.16831970,1553.3241 -97.73390961,37.16829681,1595.2120 -97.73391724,37.16827011,1637.1190 -97.73392487,37.16824341,1679.2791 -97.73394012,37.16821671,1721.4391 -97.73394775,37.16819382,1763.7200 -97.73395538,37.16816711,1805.9361 -97.73397064,37.16811752,1890.2370 -97.73397827,37.16809082,1932.4131 -97.73398590,37.16806412,1974.4140 -97.73400116,37.16803741,2016.1920 -97.73403168,37.16798019,2101.3101 -97.73405457,37.16794586,2145.2531 -97.73406982,37.16791153,2190.4690 -97.73408508,37.16787720,2234.8981 -97.73411560,37.16780853,2322.4550 -97.73413849,37.16777420,2365.9561 -97.73416901,37.16770172,2452.9161 -97.73418427,37.16766739,2496.5800 -97.73419952,37.16762924,2539.9800 -97.73421478,37.16759109,2583.3690 -97.73422241,37.16755676,2626.8750 -97.73423767,37.16751862,2670.3861 -97.73426819,37.16744614,2757.3940 -97.73429108,37.16740799,2800.9620 -97.73437500,37.16768646,2874.8721 -97.73432922,37.16738510,2682.5960 -97.73442078,37.16734695,2654.7422 -97.73445892,37.16735077,2644.1061 -97.73448181,37.16736603,2637.8202 -97.73448944,37.16739273,2639.2540 -97.73448181,37.16739655,2640.4300 -97.73449707,37.16742706,2640.6482 -97.73451996,37.16745758,2637.8481 -97.73453522,37.16748428,2634.7522 -97.73453522,37.16748428,2631.4381 -97.73454285,37.16752625,2630.8812 -97.73404694,37.16833115,1813.0991 -97.73391724,37.16822052,1775.8060 -97.73387146,37.16817093,1759.5940 -97.73383331,37.16812515,1747.1280 -97.73381805,37.16810608,1740.3321 -97.73380280,37.16809464,1733.1380 -97.73379517,37.16808701,1729.2810 -97.73378754,37.16808319,1725.7740 -97.73377991,37.16807938,1722.4461 -97.73377228,37.16807938,1718.7310 -97.73376465,37.16807556,1715.2991 -97.73376465,37.16807556,1712.1441 -97.73375702,37.16807556,1708.9501 -97.73375702,37.16807556,1705.8120 -97.73374176,37.16807556,1700.0440 -97.73374176,37.16807556,1697.0341 -97.73373413,37.16807556,1694.1161 -97.73373413,37.16807938,1691.3191 -97.73372650,37.16807938,1688.5390 -97.73371887,37.16807938,1685.7470 -97.73371887,37.16808319,1683.0651 -97.73371887,37.16808701,1680.5181 -97.73371124,37.16808701,1677.5171 -97.73365784,37.16811752,1647.2001 -97.73361206,37.16815948,1615.8901 -97.73358154,37.16819382,1582.6621 -97.73354340,37.16823959,1549.0400 -97.73352051,37.16828537,1514.7060 -97.73350525,37.16833115,1479.0341 -97.73348999,37.16838455,1444.9741 -97.73348236,37.16845703,1411.1450 -97.73345184,37.16852570,1378.3391 -97.73343658,37.16857910,1344.8751 -97.73342133,37.16864395,1309.9920 -97.73339844,37.16870880,1275.6571 -97.73339844,37.16878510,1240.6961 -97.73339844,37.16884995,1207.0241 -97.73340607,37.16892242,1173.4750 -97.73340607,37.16899490,1140.9460 -97.73338318,37.16908264,1107.4851 -97.73336792,37.16915131,1073.6980 -97.73336029,37.16921234,1041.2040 -97.73336792,37.16926956,1007.7010 -97.73336029,37.16932297,975.6911 -97.73336029,37.16936874,942.2520 -97.73335266,37.16940689,909.6141 -97.73335266,37.16944122,877.2740 -97.73336029,37.16947556,845.1920 -97.73336029,37.16950226,811.9290 -97.73336792,37.16952896,779.4811 -97.73335266,37.16958237,746.4641 -97.73334503,37.16961670,714.0800 -97.73335266,37.16965485,682.3380 -97.73334503,37.16970444,650.9550 -97.73331451,37.16975021,619.7250 -97.73329163,37.16977692,588.1190 -97.73329163,37.16981506,556.3240 -97.73327637,37.16986084,524.8930 -97.73325348,37.16990662,493.1920 -97.73323822,37.16995621,462.6850 -97.73321533,37.16999817,431.6640 -97.73320007,37.17003632,400.5800 -97.73320007,37.17005920,368.4130 -97.73291779,37.17029953,328.2790 -97.73286438,37.17031860,332.7340 -97.73296356,37.17029953,338.4400 -97.73308563,37.17022705,345.4970 -97.73314667,37.17012024,354.3920 -97.73317719,37.17006683,365.4710</coordinates>
			</LineString>
		</Placemark>
	</Document>
</kml>